[{"OBJECT_NAME":"CUTE-1.7+APD II (CO-65)","OBJECT_ID":"2008-021C","EPOCH":"2026-03-09T21:54:04.726080","MEAN_MOTION":15.08376872,"ECCENTRICITY":0.00096053,"INCLINATION":97.8207,"RA_OF_ASC_NODE":48.3884,"ARG_OF_PERICENTER":18.7003,"MEAN_ANOMALY":341.4575,"EPHEMERIS_TYPE":0,"CLASSIFICATION_TYPE":"U","NORAD_CAT_ID":32785,"ELEMENT_SET_NO":999,"REV_AT_EPOCH":97022,"BSTAR":0.00047295391,"MEAN_MOTION_DOT":7.295e-5,"MEAN_MOTION_DDOT":0},{"OBJECT_NAME":"STARLINK-3155","OBJECT_ID":"2021-115R","EPOCH":"2026-03-09T12:38:53.381472","MEAN_MOTION":15.08843236,"ECCENTRICITY":0.0001405,"INCLINATION":53.2178,"RA_OF_ASC_NODE":159.8504,"ARG_OF_PERICENTER":102.4242,"MEAN_ANOMALY":257.6908,"EPHEMERIS_TYPE":0,"CLASSIFICATION_TYPE":"U","NORAD_CAT_ID":49739,"ELEMENT_SET_NO":999,"REV_AT_EPOCH":23536,"BSTAR":1.1960171e-5,"MEAN_MOTION_DOT":-9.8e-7,"MEAN_MOTION_DDOT":0}]
